$$SOE
2459580.500000000, A.D. 2022-Jan-01 00:00:00.0000, 2.876628710866610E+08, -4.914675978408215E+07, -4.029976662352900E+07,
2459587.500000000, A.D. 2022-Jan-08 00:00:00.0000, 2.882119990185394E+08, -3.542860267003661E+07, -4.310396607154999E+07,
2459594.500000000, A.D. 2022-Jan-15 00:00:00.0000, 2.882083418586285E+08, -2.164261626089166E+07, -4.582545348138831E+07,
2459601.500000000, A.D. 2022-Jan-22 00:00:00.0000, 2.876466060466009E+08, -7.814845514063362E+06, -4.845816596022569E+07,
2459608.500000000, A.D. 2022-Jan-29 00:00:00.0000, 2.865231407551221E+08, 6.028063972565081E+06, -5.099620699418511E+07,
2459615.500000000, A.D. 2022-Feb-05 00:00:00.0000, 2.848360017757976E+08, 1.985899582788239E+07, -5.343388355722433E+07,
2459622.500000000, A.D. 2022-Feb-12 00:00:00.0000, 2.825850036691105E+08, 3.365050087934230E+07, -5.576574289915395E+07,
2459629.500000000, A.D. 2022-Feb-19 00:00:00.0000, 2.797717575053766E+08, 4.737494388579455E+07, -5.798660812406990E+07,
2459636.500000000, A.D. 2022-Feb-26 00:00:00.0000, 2.763996918137373E+08, 6.100465635647564E+07, -6.009161192611878E+07,
2459643.500000000, A.D. 2022-Mar-05 00:00:00.0000, 2.724740561410780E+08, 7.451209269513378E+07, -6.207622799308130E+07,
2459650.500000000, A.D. 2022-Mar-12 00:00:00.0000, 2.680019070328191E+08, 8.786998732479119E+07, -6.393629958280285E+07,
2459657.500000000, A.D. 2022-Mar-19 00:00:00.0000, 2.629920764668714E+08, 1.010515104714841E+08, -6.566806480621794E+07,
2459664.500000000, A.D. 2022-Mar-26 00:00:00.0000, 2.574551231022997E+08, 1.140304202484795E+08, -6.726817821420158E+07,
2459671.500000000, A.D. 2022-Apr-02 00:00:00.0000, 2.514032671233952E+08, 1.267812086992189E+08, -6.873372837195468E+07,
2459678.500000000, A.D. 2022-Apr-09 00:00:00.0000, 2.448503100191090E+08, 1.392792396502581E+08, -7.006225120712548E+07,
2459685.500000000, A.D. 2022-Apr-16 00:00:00.0000, 2.378115410398684E+08, 1.515008770625875E+08, -7.125173896520856E+07,
2459692.500000000, A.D. 2022-Apr-23 00:00:00.0000, 2.303036307079856E+08, 1.634236032477273E+08, -7.230064451122195E+07,
2459699.500000000, A.D. 2022-Apr-30 00:00:00.0000, 2.223445113844512E+08, 1.750261232961263E+08, -7.320788103461410E+07,
2459706.500000000, A.D. 2022-May-07 00:00:00.0000, 2.139532500058104E+08, 1.862884526514642E+08, -7.397281774473992E+07,
2459713.500000000, A.D. 2022-May-14 00:00:00.0000, 2.051499165095977E+08, 1.971919901010004E+08, -7.459527165566155E+07,
2459720.500000000, A.D. 2022-May-21 00:00:00.0000, 1.959554480697364E+08, 2.077195765242302E+08, -7.507549550208071E+07,
2459727.500000000, A.D. 2022-May-28 00:00:00.0000, 1.863915107900402E+08, 2.178555383642560E+08, -7.541416217483632E+07,
2459734.500000000, A.D. 2022-Jun-04 00:00:00.0000, 1.764803611743453E+08, 2.275857157473504E+08, -7.561234612894613E+07,
2459741.500000000, A.D. 2022-Jun-11 00:00:00.0000, 1.662447094231541E+08, 2.368974757772426E+08, -7.567150221210939E+07,
2459748.500000000, A.D. 2022-Jun-18 00:00:00.0000, 1.557075863246959E+08, 2.457797117916876E+08, -7.559344236971769E+07,
2459755.500000000, A.D. 2022-Jun-25 00:00:00.0000, 1.448922152931981E+08, 2.542228295308782E+08, -7.538031069086435E+07,
2459762.500000000, A.D. 2022-Jul-02 00:00:00.0000, 1.338218909861103E+08, 2.622187212992399E+08, -7.503455726569785E+07,
2459769.500000000, A.D. 2022-Jul-09 00:00:00.0000, 1.225198659536467E+08, 2.697607295654193E+08, -7.455891131202997E+07,
2459776.500000000, A.D. 2022-Jul-16 00:00:00.0000, 1.110092460966147E+08, 2.768436024246005E+08, -7.395635388918638E+07,
2459783.500000000, A.D. 2022-Jul-23 00:00:00.0000, 9.931289333424410E+07, 2.834634423615019E+08, -7.323009036237225E+07,
2459790.500000000, A.D. 2022-Jul-30 00:00:00.0000, 8.745333593393305E+07, 2.896176463171871E+08, -7.238352322571065E+07,
2459797.500000000, A.D. 2022-Aug-06 00:00:00.0000, 7.545269027522160E+07, 2.953048390444070E+08, -7.142022585358870E+07,
2459804.500000000, A.D. 2022-Aug-13 00:00:00.0000, 6.333259321992214E+07, 3.005248037687012E+08, -7.034391712493883E+07,
2459811.500000000, A.D. 2022-Aug-20 00:00:00.0000, 5.111414334420843E+07, 3.052784108344525E+08, -6.915843701844341E+07,
2459818.500000000, A.D. 2022-Aug-27 00:00:00.0000, 3.881785079672975E+07, 3.095675447085951E+08, -6.786772341188109E+07,
2459825.500000000, A.D. 2022-Sep-03 00:00:00.0000, 2.646359562968246E+07, 3.133950302267579E+08, -6.647579024946462E+07,
2459832.500000000, A.D. 2022-Sep-10 00:00:00.0000, 1.407059421438536E+07, 3.167645589828247E+08, -6.498670717636657E+07,
2459839.500000000, A.D. 2022-Sep-17 00:00:00.0000, 1.657373230422522E+06, 3.196806166161180E+08, -6.340458069850501E+07,
2459846.500000000, A.D. 2022-Sep-24 00:00:00.0000, -1.075824929620270E+07, 3.221484115846933E+08, -6.173353690028773E+07,
2459853.500000000, A.D. 2022-Oct-01 00:00:00.0000, -2.315917627751389E+07, 3.241738059324715E+08, -5.997770574100713E+07,
2459860.500000000, A.D. 2022-Oct-08 00:00:00.0000, -3.552903738514719E+07, 3.257632490017415E+08, -5.814120690078637E+07,
2459867.500000000, A.D. 2022-Oct-15 00:00:00.0000, -4.785218995686694E+07, 3.269237156289766E+08, -5.622813695310602E+07,
2459874.500000000, A.D. 2022-Oct-22 00:00:00.0000, -6.011371776421519E+07, 3.276626473884311E+08, -5.424255774625818E+07,
2459881.500000000, A.D. 2022-Oct-29 00:00:00.0000, -7.229942572034812E+07, 3.279878944521633E+08, -5.218848636452091E+07,
2459888.500000000, A.D. 2022-Nov-05 00:00:00.0000, -8.439582898262663E+07, 3.279076609162605E+08, -5.006988656513584E+07,
2459895.500000000, A.D. 2022-Nov-12 00:00:00.0000, -9.639013892383803E+07, 3.274304549143503E+08, -4.789066133103645E+07,
2459902.500000000, A.D. 2022-Nov-19 00:00:00.0000, -1.082702471620301E+08, 3.265650425592494E+08, -4.565464646783856E+07,
2459909.500000000, A.D. 2022-Nov-26 00:00:00.0000, -1.200247078216641E+08, 3.253204052686578E+08, -4.336560521663335E+07,
2459916.500000000, A.D. 2022-Dec-03 00:00:00.0000, -1.316427182558677E+08, 3.237057003844596E+08, -4.102722381464420E+07,
2459923.500000000, A.D. 2022-Dec-10 00:00:00.0000, -1.431140985406664E+08, 3.217302249989130E+08, -3.864310792387822E+07,
2459930.500000000, A.D. 2022-Dec-17 00:00:00.0000, -1.544292700346577E+08, 3.194033828364938E+08, -3.621677985196164E+07,
2459937.500000000, A.D. 2022-Dec-24 00:00:00.0000, -1.655792331763204E+08, 3.167346539837368E+08, -3.375167650354972E+07,
2459944.500000000, A.D. 2022-Dec-31 00:00:00.0000, -1.765555444083216E+08, 3.137335674216742E+08, -3.125114801292239E+07,
2459951.500000000, A.D. 2023-Jan-07 00:00:00.0000, -1.873502923214623E+08, 3.104096771636794E+08, -2.871845692115782E+07,
2459958.500000000, A.D. 2023-Jan-14 00:00:00.0000, -1.979560751711004E+08, 3.067725423347735E+08, -2.615677761259291E+07,
2459965.500000000, A.D. 2023-Jan-21 00:00:00.0000, -2.083659805638341E+08, 3.028317078569532E+08, -2.356919615023221E+07,
2459972.500000000, A.D. 2023-Jan-28 00:00:00.0000, -2.185735637735028E+08, 2.985966853732592E+08, -2.095871080456735E+07,
2459979.500000000, A.D. 2023-Feb-04 00:00:00.0000, -2.285728250102884E+08, 2.940769372727789E+08, -1.832823295810106E+07,
2459986.500000000, A.D. 2023-Feb-11 00:00:00.0000, -2.383581875332826E+08, 2.892818634702038E+08, -1.568058819186360E+07,
2459993.500000000, A.D. 2023-Feb-18 00:00:00.0000, -2.479244767443346E+08, 2.842207899678150E+08, -1.301851757382129E+07,
2460000.500000000, A.D. 2023-Feb-25 00:00:00.0000, -2.572669000607460E+08, 2.789029588957552E+08, -1.034467914869921E+07,
2460007.500000000, A.D. 2023-Mar-04 00:00:00.0000, -2.663810275115002E+08, 2.733375199163694E+08, -7.661649602992430E+06,
2460014.500000000, A.D. 2023-Mar-11 00:00:00.0000, -2.752627730621516E+08, 2.675335228684819E+08, -4.971926076887339E+06,
2460021.500000000, A.D. 2023-Mar-18 00:00:00.0000, -2.839083766435652E+08, 2.614999114846760E+08, -2.277928103527129E+06,
2460028.500000000, A.D. 2023-Mar-25 00:00:00.0000, -2.923143866940340E+08, 2.552455180236345E+08, 4.180003269446939E+05,
2460035.500000000, A.D. 2023-Apr-01 00:00:00.0000, -3.004776427956033E+08, 2.487790591069378E+08, 3.113588594060838E+06,
2460042.500000000, A.D. 2023-Apr-08 00:00:00.0000, -3.083952590200930E+08, 2.421091338886457E+08, 5.806637340559274E+06,
2460049.500000000, A.D. 2023-Apr-15 00:00:00.0000, -3.160646103178870E+08, 2.352442233644198E+08, 8.495016573730543E+06,
2460056.500000000, A.D. 2023-Apr-22 00:00:00.0000, -3.234833201270218E+08, 2.281926876891630E+08, 1.117666357431257E+07,
2460063.500000000, A.D. 2023-Apr-29 00:00:00.0000, -3.306492464452383E+08, 2.209627636764489E+08, 1.384958055954522E+07,
2460070.500000000, A.D. 2023-May-06 00:00:00.0000, -3.375604681063703E+08, 2.135625641846105E+08, 1.651183241815108E+07,
2460077.500000000, A.D. 2023-May-13 00:00:00.0000, -3.442152722212802E+08, 2.060000784294078E+08, 1.916154454242973E+07,
2460084.500000000, A.D. 2023-May-20 00:00:00.0000, -3.506121425314271E+08, 1.982831726723205E+08, 2.179690070321333E+07,
2460091.500000000, A.D. 2023-May-27 00:00:00.0000, -3.567497484639992E+08, 1.904195912019943E+08, 2.441614095384414E+07,
2460098.500000000, A.D. 2023-Jun-03 00:00:00.0000, -3.626269348121683E+08, 1.824169575890360E+08, 2.701755956544687E+07,
2460105.500000000, A.D. 2023-Jun-10 00:00:00.0000, -3.682427119950441E+08, 1.742827761596567E+08, 2.959950299479850E+07,
2460112.500000000, A.D. 2023-Jun-17 00:00:00.0000, -3.735962467844336E+08, 1.660244335903218E+08, 3.216036787548055E+07,
2460119.500000000, A.D. 2023-Jun-24 00:00:00.0000, -3.786868531536968E+08, 1.576492006436532E+08, 3.469859901043588E+07,
2460126.500000000, A.D. 2023-Jul-01 00:00:00.0000, -3.835139829710311E+08, 1.491642348406746E+08, 3.721268741256302E+07,
2460133.500000000, A.D. 2023-Jul-08 00:00:00.0000, -3.880772181883977E+08, 1.405765848610984E+08, 3.970116861565555E+07,
2460140.500000000, A.D. 2023-Jul-15 00:00:00.0000, -3.923762657829094E+08, 1.318931938159389E+08, 4.216262114289493E+07,
2460147.500000000, A.D. 2023-Jul-22 00:00:00.0000, -3.964109519074975E+08, 1.231209003366628E+08, 4.459566472641230E+07,
$$EOE